     3.02           N: GNSS NAV DATA    G: GPS              RINEX VERSION / TYPE
GNSS-SDR            suhjw               20250805 121900 UTC PGM / RUN BY / DATE 
GPS NAVIGATION MESSAGE FILE GENERATED BY GNSS-SDR           COMMENT             
GNSS-SDR VERSION 0.0.20                                     COMMENT             
See https://gnss-sdr.org                                    COMMENT             
GPSA    .0000D+00   .0000D+00   .0000D+00   .0000D+00       IONOSPHERIC CORR    
GPSB    .0000D+00   .0000D+00   .0000D+00   .0000D+00       IONOSPHERIC CORR    
GPUT   .0000000000D+00  .000000000D+00      0 2378          TIME SYSTEM CORR    
     0     0     0     0                                    LEAP SECONDS        
                                                            END OF HEADER       
G03 2025 08 05 14 00 00  .687308143824D-03 -.250111042988D-11  .000000000000D+00
      .105000000000D+03 -.936250000000D+02  .390337687703D-08  .205896558132D+01
     -.508874654770D-05  .643040542491D-02  .266171991825D-05  .515374079132D+04
      .223200000000D+06 -.223517417908D-07  .159504740506D+01 -.104308128357D-06
      .990364527264D+00  .342968750000D+03  .121486225481D+01 -.786568478020D-08
     -.205365697163D-09  .100000000000D+01  .237800000000D+04  .100000000000D+01
      .000000000000D+00  .000000000000D+00  .139698386192D-08  .105000000000D+03
      .217158000000D+06  .000000000000D+00                                      
G16 2025 08 05 14 00 00  .751488842070D-04  .807176547823D-11  .000000000000D+00
      .600000000000D+02  .121562500000D+02  .461769234542D-08  .420881736214D-01
      .767409801483D-06  .144859490683D-01  .713951885700D-05  .515377054977D+04
      .223200000000D+06 -.242143869400D-07 -.147011669830D+01  .225380063057D-06
      .958765963422D+00  .242562500000D+03  .889233243288D+00 -.813641034272D-08
     -.346085844436D-09  .100000000000D+01  .237800000000D+04  .100000000000D+01
      .000000000000D+00  .000000000000D+00 -.102445483208D-07  .600000000000D+02
      .217158000000D+06  .000000000000D+00                                      
G25 2025 08 05 14 00 00  .477627851069D-03 -.159161572810D-11  .000000000000D+00
      .500000000000D+02  .393750000000D+01  .483484424781D-08  .178175386099D+01
      .502914190292D-07  .123186882120D-01  .674463808537D-05  .515359038734D+04
      .223200000000D+06 -.154599547386D-06 -.157894752200D+01 -.230967998505D-06
      .947737319532D+00  .242562500000D+03  .112679282216D+01 -.809998025383D-08
     -.257153568621D-09  .100000000000D+01  .237800000000D+04  .100000000000D+01
      .000000000000D+00  .000000000000D+00  .558793544769D-08  .500000000000D+02
      .217158000000D+06  .000000000000D+00                                      
G26 2025 08 05 14 00 00 -.260731671005D-03  .795807864051D-12  .000000000000D+00
      .890000000000D+02  .850000000000D+01  .537308095325D-08  .926849763493D+00
      .547617673874D-06  .101663542446D-01  .632740557194D-05  .515360545540D+04
      .223200000000D+06 -.108033418655D-06 -.164957219930D+01  .949949026108D-07
      .928507011221D+00  .241156250000D+03  .638098382970D+00 -.840713590524D-08
     -.381801617856D-09  .100000000000D+01  .237800000000D+04  .100000000000D+01
      .000000000000D+00  .000000000000D+00  .651925802231D-08  .890000000000D+02
      .217158000000D+06  .000000000000D+00                                      
G28 2025 08 05 14 00 00 -.635595060885D-03 -.170530256582D-11  .000000000000D+00
      .128000000000D+03  .434375000000D+01  .457840499466D-08  .267094200691D+01
      .167638063431D-06  .353907584213D-03  .743754208088D-05  .515364835548D+04
      .223200000000D+06  .540167093277D-07 -.263268740719D+01  .223517417908D-07
      .961756729737D+00  .238875000000D+03  .237752935684D+00 -.788497129785D-08
      .279297348141D-09  .100000000000D+01  .237800000000D+04  .100000000000D+01
      .000000000000D+00  .000000000000D+00 -.931322574615D-08  .640000000000D+03
      .217158000000D+06  .000000000000D+00                                      
G29 2025 08 05 14 00 00 -.473165418953D-03  .500222085975D-11  .000000000000D+00
      .860000000000D+02  .820000000000D+02  .420910389750D-08 -.103579629086D+01
      .395439565182D-05  .334316340741D-02  .842846930027D-05  .515361446953D+04
      .223200000000D+06 -.558793544769D-08 -.434867199404D+00 -.391155481339D-07
      .965134139448D+00  .219437500000D+03  .275616910530D+01 -.779818196844D-08
     -.546451333320D-10  .100000000000D+01  .237800000000D+04  .100000000000D+01
      .000000000000D+00  .000000000000D+00 -.977888703346D-08  .860000000000D+02
      .217158000000D+06  .000000000000D+00                                      
G31 2025 08 05 14 00 00 -.197521410882D-03  .147792889038D-11  .000000000000D+00
      .168000000000D+03  .412500000000D+01  .475805533496D-08  .158560984843D+01
      .147148966789D-06  .106734915171D-01  .766105949879D-05  .515369831276D+04
      .223200000000D+06 -.169500708580D-06 -.258125840800D+01 -.353902578354D-07
      .954557216865D+00  .235968750000D+03  .849383648855D+00 -.801926260590D-08
      .198579700213D-09  .100000000000D+01  .237800000000D+04  .100000000000D+01
      .000000000000D+00  .000000000000D+00 -.135041773319D-07  .168000000000D+03
      .217158000000D+06  .000000000000D+00                                      
